KAITUO 1B               
1 40912U 15049P   17338.63677523  .00001651  00000-0  83770-4 0  9998
2 40912  97.4511 343.7939 0014949 335.7145 156.9942 15.18253654122144
TIANWANG 1C (TW-1C)     
1 40926U 15051B   17338.37806608  .00008835  00000-0  18288-3 0  9997
2 40926  97.2104  16.7685 0008816 271.5310 205.5703 15.45970376123185
TIANWANG 1B (TW-1B)     
1 40927U 15051C   17338.37816279  .00008681  00000-0  18695-3 0  9994
2 40927  97.2189  16.7051 0008812 286.4288 190.6145 15.44810970123110
TIANWANG 1A (TW-1A)     
1 40928U 15051D   17338.56370814  .00003158  00000-0  87804-4 0  9999
2 40928  97.2098  11.2900 0010911 311.8605 175.1277 15.37532925122860
LAPAN-A2 (IO-86)        
1 40931U 15052B   17337.98823526  .00000724  00000-0  11890-4 0  9990
2 40931   5.9969 101.9872 0012465 124.7718 235.3710 14.76557905118104
LQSAT                   
1 40958U 15057A   17338.48153499  .00000051  00000-0  15767-4 0  9995
2 40958  97.9635  50.6858 0016839 238.6617 121.2946 14.73004634116183
CHUBUSAT-2              
1 41338U 16012B   17337.79710535  .00000344  00000-0  20182-4 0  9995
2 41338  31.0029 114.9526 0014051 298.5105  61.4116 14.99880690 98476
CHUBUSAT-3              
1 41339U 16012C   17338.43458731  .00000408  00000-0  25099-4 0  9998
2 41339  31.0083 109.7867 0013900 311.4891  48.4565 15.00076122 98558
OUFTI-1                 
1 41458U 16025C   17338.41496308  .00002708  00000-0  14500-3 0  9993
2 41458  98.1653  25.6500 0172845  80.5193 281.5520 15.04013812 88157
E-ST@R-II               
1 41459U 16025D   17338.39025771  .00001665  00000-0  90822-4 0  9996
2 41459  98.1668  25.5352 0174920  81.0353 281.0627 15.03795588 88146
AAUSAT 4                
1 41460U 16025E   17338.40543344  .00002890  00000-0  15395-3 0  9993
2 41460  98.1609  25.7889 0165971  78.4353 283.5428 15.04984295 88182
NUSAT 1 (LO-87)         
1 41557U 16033B   17338.28535210  .00001377  00000-0  53379-4 0  9992
2 41557  97.4522  57.7635 0015359 123.5199 236.7509 15.27780030 84398
BEESAT-4                
1 41619U 16040W   17337.84936870  .00001506  00000-0  69938-4 0  9999
2 41619  97.4425  38.4777 0011610 187.2745 172.8324 15.21517117 68386
PRATHAM                 
1 41783U 16059A   17338.13494177  .00000083  00000-0  25595-4 0  9993
2 41783  98.1463  37.5578 0033274 350.0837   9.9704 14.62884402 63441
ALSAT 1N                
1 41789U 16059G   17338.39242470  .00000099  00000-0  27977-4 0  9997
2 41789  98.1473  38.6455 0028081 343.2894  16.7392 14.64106732 63513
NAYIF-1 (EO-88)         
1 42017U 17008BX  17338.17070256  .00001464  00000-0  63806-4 0  9992
2 42017  97.4752  39.1803 0006265 359.8434   0.2800 15.23792063 44364
LILACSAT-1              
1 42725U 98067ME  17338.23423321  .00013672  00000-0  16351-3 0  9990
2 42725  51.6388 266.0431 0004631 203.8265 156.2515 15.61304390 29980
MAX VALIER SAT          
1 42778U 17036P   17337.73547928  .00001018  00000-0  49118-4 0  9998
2 42778  97.4316  35.4365 0013692  40.3907 319.8342 15.20874698 24792
FOX-1B (AO-91)          
1 43017U 17073E   17337.82071172  .00000357  00000-0  33780-4 0  9992
2 43017  97.6921 272.3028 0260490 187.2281 172.5146 14.77784659  2258
